NORAD_CAT_ID,OBJECT_NAME,OBJECT_TYPE,EPOCH,MEAN_MOTION,ECCENTRICITY,INCLINATION,RA_OF_ASC_NODE,ARG_OF_PERICENTER,MEAN_ANOMALY,BSTAR,MEAN_MOTION_DOT,MEAN_MOTION_DDOT,TLE_LINE0,TLE_LINE1,TLE_LINE2,SEMIMAJOR_AXIS,PERIOD,APOGEE,PERIGEE,DECAYED
53715.0,STARLINK-4686,PAYLOAD,2024-05-21 19:50:56,15.0885193,9.99e-05,53.2169,322.6094,68.3144,291.7955,0.0007763,0.00012092,0.0,0 STARLINK-4686,1 53715U 22107R   24142.82704580  .00012092  00000-0  77630-3 0  9990,2 53715  53.2169 322.6094 0000999  68.3144 291.7955 15.08851930 95257,6917.844,95.437,540.4,539.018,0.0
53715.0,STARLINK-4686,PAYLOAD,2024-05-22 11:44:48,15.08839141,0.0001741,53.2178,319.6404,52.0935,308.0214,0.00052164,8.023e-05,0.0,0 STARLINK-4686,1 53715U 22107R   24143.48945283  .00008023  00000-0  52164-3 0  9994,2 53715  53.2178 319.6404 0001741  52.0935 308.0214 15.08839141 94891,6917.883,95.438,540.952,538.544,0.0
53715.0,STARLINK-4686,PAYLOAD,2024-05-23 11:35:35,15.08840671,0.0001684,53.2181,315.1803,52.8077,307.3069,0.00029735,4.448e-05,0.0,0 STARLINK-4686,1 53715U 22107R   24144.48305450  .00004448  00000-0  29735-3 0  9996,2 53715  53.2181 315.1803 0001684  52.8077 307.3069 15.08840671 95048,6917.878,95.438,540.908,538.578,0.0
53715.0,STARLINK-4686,PAYLOAD,2024-05-23 14:46:22,15.08841734,0.0001184,53.2175,314.5814,75.2996,284.8127,0.00025127,3.714e-05,0.0,0 STARLINK-4686,1 53715U 22107R   24144.61553284  .00003714  00000-0  25127-3 0  9997,2 53715  53.2175 314.5814 0001184  75.2996 284.8127 15.08841734 95528,6917.875,95.437,540.559,538.921,0.0
53715.0,STARLINK-4686,PAYLOAD,2024-05-23 17:57:08,15.0884502,0.0001212,53.2176,313.9863,68.7007,291.4115,0.0002778,4.137e-05,0.0,0 STARLINK-4686,1 53715U 22107R   24144.74801176  .00004137  00000-0  27780-3 0  9994,2 53715  53.2176 313.9863 0001212  68.7007 291.4115 15.08845020 95543,6917.865,95.437,540.568,538.892,0.0
53715.0,STARLINK-4686,PAYLOAD,2024-05-24 14:37:08,15.08847128,0.0001319,53.2177,310.1209,98.2134,261.9008,0.00022949,3.367e-05,0.0,0 STARLINK-4686,1 53715U 22107R   24145.60912874  .00003367  00000-0  22949-3 0  9994,2 53715  53.2177 310.1209 0001319  98.2134 261.9008 15.08847128 95672,6917.859,95.437,540.636,538.811,0.0
53715.0,STARLINK-4686,PAYLOAD,2024-05-24 20:58:40,15.08854519,0.0001178,53.2171,308.9275,100.9848,259.1276,0.00032801,4.938e-05,0.0,0 STARLINK-4686,1 53715U 22107R   24145.87408455  .00004938  00000-0  32801-3 0  9991,2 53715  53.2171 308.9275 0001178 100.9848 259.1276 15.08854519 95252,6917.836,95.437,540.516,538.886,0.0
53715.0,STARLINK-4686,PAYLOAD,2024-05-25 11:17:09,15.08831968,0.0001182,53.2172,306.2551,85.426,274.6867,-0.00010548,-1.966e-05,0.0,0 STARLINK-4686,1 53715U 22107R   24146.47025425 -.00001966  00000-0 -10548-3 0  9994,2 53715  53.2172 306.2551 0001182  85.4260 274.6867 15.08831968 95342,6917.905,95.438,540.588,538.952,0.0
53715.0,STARLINK-4686,PAYLOAD,2024-05-25 14:27:56,15.08834122,0.0001359,53.2156,305.6537,97.7711,262.3435,-0.00011755,-2.158e-05,0.0,0 STARLINK-4686,1 53715U 22107R   24146.60273288 -.00002158  00000-0 -11755-3 0  9996,2 53715  53.2156 305.6537 0001359  97.7711 262.3435 15.08834122 95827,6917.898,95.438,540.703,538.823,0.0
53715.0,STARLINK-4686,PAYLOAD,2024-05-26 03:11:01,15.088459,0.0001193,53.2164,303.2822,91.9235,268.1894,0.00017348,2.475e-05,0.0,0 STARLINK-4686,1 53715U 22107R   24147.13265074  .00002475  00000-0  17348-3 0  9993,2 53715  53.2164 303.2822 0001193  91.9235 268.1894 15.08845900 95447,6917.862,95.437,540.553,538.902,0.0
53715.0,STARLINK-4686,PAYLOAD,2024-05-26 14:18:42,15.08859385,0.0001,53.2172,301.2061,107.0134,253.0968,0.00032002,4.812e-05,0.0,0 STARLINK-4686,1 53715U 22107R   24147.59632091  .00004812  00000-0  32002-3 0  9991,2 53715  53.2172 301.2061 0001000 107.0134 253.0968 15.08859385 95978,6917.821,95.436,540.378,538.994,0.0
53715.0,STARLINK-4686,PAYLOAD,2024-05-26 19:04:52,15.08838878,7.6e-05,53.2173,300.3153,84.6391,275.4688,-1.8852e-05,-5.88e-06,0.0,0 STARLINK-4686,1 53715U 22107R   24147.79504795 -.00000588  00000-0 -18852-4 0  9998,2 53715  53.2173 300.3153 0000760  84.6391 275.4688 15.08838878 96004,6917.884,95.438,540.275,539.223,0.0
53715.0,STARLINK-4686,PAYLOAD,2024-05-27 14:09:30,15.0883255,6.48e-05,53.2182,296.7481,81.5587,278.5479,1.1125e-05,-1.11e-06,0.0,0 STARLINK-4686,1 53715U 22107R   24148.58993215 -.00000111  00000-0  11125-4 0  9992,2 53715  53.2182 296.7481 0000648  81.5587 278.5479 15.08832550 96120,6917.903,95.438,540.216,539.32,0.0
53715.0,STARLINK-4686,PAYLOAD,2024-05-27 18:55:39,15.08837567,8.43e-05,53.2179,295.8456,82.0148,278.0939,4.9802e-05,5.05e-06,0.0,0 STARLINK-4686,1 53715U 22107R   24148.78865049  .00000505  00000-0  49802-4 0  9996,2 53715  53.2179 295.8456 0000843  82.0148 278.0939 15.08837567 96156,6917.888,95.438,540.336,539.17,0.0
53715.0,STARLINK-4686,PAYLOAD,2024-05-28 14:00:16,15.08846339,8.05e-05,53.218,292.2768,102.8523,257.2559,-0.00016008,-2.835e-05,0.0,0 STARLINK-4686,1 53715U 22107R   24149.58352456 -.00002835  00000-0 -16008-3 0  9999,2 53715  53.2180 292.2768 0000805 102.8523 257.2559 15.08846339 96278,6917.861,95.437,540.283,539.169,0.0
53715.0,STARLINK-4686,PAYLOAD,2024-05-28 17:11:02,15.08849604,8.31e-05,53.2178,291.682,91.9437,268.165,-8.5515e-05,-1.649e-05,0.0,0 STARLINK-4686,1 53715U 22107R   24149.71600320 -.00001649  00000-0 -85515-4 0  9992,2 53715  53.2178 291.6820 0000831  91.9437 268.1650 15.08849604 95830,6917.851,95.437,540.291,539.141,0.0
53715.0,STARLINK-4686,PAYLOAD,2024-05-29 09:04:54,15.08834198,6.92e-05,53.2179,288.7103,95.5817,264.5254,7.9794e-05,9.82e-06,0.0,0 STARLINK-4686,1 53715U 22107R   24150.37841374  .00000982  00000-0  79794-4 0  9991,2 53715  53.2179 288.7103 0000692  95.5817 264.5254 15.08834198 95932,6917.898,95.438,540.242,539.284,0.0
53715.0,STARLINK-4686,PAYLOAD,2024-05-29 13:51:04,15.08836019,7.54e-05,53.2177,287.8191,83.9613,276.1465,0.0001113,1.484e-05,0.0,0 STARLINK-4686,1 53715U 22107R   24150.57713456  .00001484  00000-0  11130-3 0  9999,2 53715  53.2177 287.8191 0000754  83.9613 276.1465 15.08836019 96423,6917.893,95.438,540.279,539.236,0.0
53715.0,STARLINK-4686,PAYLOAD,2024-05-29 15:26:27,15.08837259,8.9e-05,53.2176,287.522,72.663,287.4459,0.00013001,1.782e-05,0.0,0 STARLINK-4686,1 53715U 22107R   24150.64337477  .00001782  00000-0  13001-3 0  9992,2 53715  53.2176 287.5220 0000890  72.6630 287.4459 15.08837259 96433,6917.889,95.438,540.369,539.138,0.0
53715.0,STARLINK-4686,PAYLOAD,2024-05-30 13:41:52,15.08830341,9.47e-05,53.2172,283.36,85.1769,274.9331,0.00066292,0.00010275,0.0,0 STARLINK-4686,1 53715U 22107R   24151.57074233  .00010275  00000-0  66292-3 0  9990,2 53715  53.2172 283.3600 0000947  85.1769 274.9331 15.08830341 96570,6917.91,95.438,540.43,539.12,0.0
53715.0,STARLINK-4686,PAYLOAD,2024-05-30 15:17:14,15.08848776,9.58e-05,53.2164,283.0616,62.3733,297.7356,0.00021277,3.101e-05,0.0,0 STARLINK-4686,1 53715U 22107R   24151.63697302  .00003101  00000-0  21277-3 0  9999,2 53715  53.2164 283.0616 0000958  62.3733 297.7356 15.08848776 96127,6917.854,95.437,540.381,539.056,0.0
53715.0,STARLINK-4686,PAYLOAD,2024-05-31 13:32:38,15.08845923,9.73e-05,53.217,278.8985,90.3156,269.7948,0.00022091,3.23e-05,0.0,0 STARLINK-4686,1 53715U 22107R   24152.56433385  .00003230  00000-0  22091-3 0  9999,2 53715  53.2170 278.8985 0000973  90.3156 269.7948 15.08845923 96264,6917.862,95.437,540.4,539.054,0.0
53715.0,STARLINK-4686,PAYLOAD,2024-05-31 15:08:01,15.08847358,0.0001041,53.2176,278.6012,95.0313,265.0798,0.0002307,3.386e-05,0.0,0 STARLINK-4686,1 53715U 22107R   24152.63057281  .00003386  00000-0  23070-3 0  9994,2 53715  53.2176 278.6012 0001041  95.0313 265.0798 15.08847358 96731,6917.858,95.437,540.443,539.003,0.0
53715.0,STARLINK-4686,PAYLOAD,2024-06-01 13:23:26,15.08837068,9.99e-05,53.2169,274.436,93.9049,266.2058,1.206e-05,-9.6e-07,0.0,0 STARLINK-4686,1 53715U 22107R   24153.55794103 -.00000096  00000-0  12060-4 0  9991,2 53715  53.2169 274.4360 0000999  93.9049 266.2058 15.08837068 96411,6917.889,95.438,540.445,539.063,0.0
53715.0,STARLINK-4686,PAYLOAD,2024-06-01 14:58:49,15.08836952,8.95e-05,53.217,274.1402,87.6851,272.4243,2.703e-05,1.42e-06,0.0,0 STARLINK-4686,1 53715U 22107R   24153.62418039  .00000142  00000-0  27030-4 0  9994,2 53715  53.2170 274.1402 0000895  87.6851 272.4243 15.08836952 96880,6917.89,95.438,540.374,539.136,0.0
53715.0,STARLINK-4686,PAYLOAD,2024-06-02 14:49:35,15.08843609,9.15e-05,53.2183,269.6815,98.5906,261.519,0.00012061,1.632e-05,0.0,0 STARLINK-4686,1 53715U 22107R   24154.61777672  .00001632  00000-0  12061-3 0  9997,2 53715  53.2183 269.6815 0000915  98.5906 261.5190 15.08843609 97031,6917.869,95.437,540.367,539.101,0.0
53715.0,STARLINK-4686,PAYLOAD,2024-06-03 14:40:22,15.08851565,7.7e-05,53.2169,265.2193,89.6535,270.4546,0.00023537,3.461e-05,0.0,0 STARLINK-4686,1 53715U 22107R   24155.61136978  .00003461  00000-0  23537-3 0  9998,2 53715  53.2169 265.2193 0000770  89.6535 270.4546 15.08851565 97184,6917.845,95.437,540.243,539.177,0.0
53715.0,STARLINK-4686,PAYLOAD,2024-06-03 16:15:45,15.08852687,0.0001096,53.2174,264.9239,101.7383,258.3733,0.00024322,3.586e-05,0.0,0 STARLINK-4686,1 53715U 22107R   24155.67760939  .00003586  00000-0  24322-3 0  9995,2 53715  53.2174 264.9239 0001096 101.7383 258.3733 15.08852687 96735,6917.842,95.437,540.465,538.948,0.0
53715.0,STARLINK-4686,PAYLOAD,2024-06-04 00:12:41,15.08845931,0.0001169,53.2168,263.4333,82.1419,277.9706,0.00012483,1.7e-05,0.0,0 STARLINK-4686,1 53715U 22107R   24156.00881384  .00001700  00000-0  12483-3 0  9992,2 53715  53.2168 263.4333 0001169  82.1419 277.9706 15.08845931 96786,6917.862,95.437,540.536,538.919,0.0
53715.0,STARLINK-4686,PAYLOAD,2024-06-04 11:20:23,15.08848872,0.0001245,53.216,261.3529,87.5134,272.6,0.00010329,1.357e-05,0.0,0 STARLINK-4686,1 53715U 22107R   24156.47249116  .00001357  00000-0  10329-3 0  9999,2 53715  53.2160 261.3529 0001245  87.5134 272.6000 15.08848872 97316,6917.853,95.437,540.58,538.857,0.0
